{"type": "FeatureCollection", "features": [{"type": "Feature", "properties": {"norad_id": 28890, "name": "BEIJING 1", "group": "dmc", "lat": -63.371561894215596, "lon": 142.63460275769313, "alt_km": 700.5295935666281, "timestamp": "2025-12-24T05:51:19.272050+00:00", "meta": {"OBJECT_NAME": "BEIJING 1", "OBJECT_ID": "2005-043A", "EPOCH": "2025-12-23T23:35:12.138432", "MEAN_MOTION": 14.63375111, "ECCENTRICITY": 0.00157959, "INCLINATION": 98.2665, "RA_OF_ASC_NODE": 125.517, "ARG_OF_PERICENTER": 108.1837, "MEAN_ANOMALY": 252.1086, "EPHEMERIS_TYPE": 0, "CLASSIFICATION_TYPE": "U", "NORAD_CAT_ID": 28890, "ELEMENT_SET_NO": 999, "REV_AT_EPOCH": 7502, "BSTAR": 4.8566934e-05, "MEAN_MOTION_DOT": 2.02e-06, "MEAN_MOTION_DDOT": 0}, "tle": {"line1": "1 28890U 05043A   25357.98277938  .00000202  00000+0  48567-4 0  9991", "line2": "2 28890  98.2665 125.5170 0015795 108.1837 252.1086 14.63375111 75021"}}, "geometry": {"type": "Point", "coordinates": [142.63460275769313, -63.371561894215596]}}, {"type": "Feature", "properties": {"norad_id": 33320, "name": "HUANJING 1A (HJ-1A)", "group": "dmc", "lat": 69.81404283777644, "lon": -35.395274772459274, "alt_km": 607.9018265846007, "timestamp": "2025-12-24T05:51:19.272075+00:00", "meta": {"OBJECT_NAME": "HUANJING 1A (HJ-1A)", "OBJECT_ID": "2008-041A", "EPOCH": "2025-12-23T23:03:38.564064", "MEAN_MOTION": 14.83427083, "ECCENTRICITY": 0.00193136, "INCLINATION": 97.6546, "RA_OF_ASC_NODE": 345.7907, "ARG_OF_PERICENTER": 358.7486, "MEAN_ANOMALY": 1.3677, "EPHEMERIS_TYPE": 0, "CLASSIFICATION_TYPE": "U", "NORAD_CAT_ID": 33320, "ELEMENT_SET_NO": 999, "REV_AT_EPOCH": 93242, "BSTAR": 0.00015514087, "MEAN_MOTION_DOT": 1.226e-05, "MEAN_MOTION_DDOT": 0}, "tle": {"line1": "1 33320U 08041A   25357.96086301  .00001226  00000+0  15514-3 0  9998", "line2": "2 33320  97.6546 345.7907 0019313 358.7486   1.3677 14.83427083932427"}}, "geometry": {"type": "Point", "coordinates": [-35.395274772459274, 69.81404283777644]}}, {"type": "Feature", "properties": {"norad_id": 33321, "name": "HUANJING 1B (HJ-1B)", "group": "dmc", "lat": -82.1050511335892, "lon": 94.26401942815951, "alt_km": 645.0763987700202, "timestamp": "2025-12-24T05:51:19.272089+00:00", "meta": {"OBJECT_NAME": "HUANJING 1B (HJ-1B)", "OBJECT_ID": "2008-041B", "EPOCH": "2025-12-23T23:47:29.232384", "MEAN_MOTION": 14.8284783, "ECCENTRICITY": 0.00377872, "INCLINATION": 97.6402, "RA_OF_ASC_NODE": 349.4873, "ARG_OF_PERICENTER": 40.0423, "MEAN_ANOMALY": 320.3566, "EPHEMERIS_TYPE": 0, "CLASSIFICATION_TYPE": "U", "NORAD_CAT_ID": 33321, "ELEMENT_SET_NO": 999, "REV_AT_EPOCH": 93244, "BSTAR": 0.0001338043, "MEAN_MOTION_DOT": 1.045e-05, "MEAN_MOTION_DDOT": 0}, "tle": {"line1": "1 33321U 08041B   25357.99131056  .00001045  00000+0  13380-3 0  9998", "line2": "2 33321  97.6402 349.4873 0037787  40.0423 320.3566 14.82847830932447"}}, "geometry": {"type": "Point", "coordinates": [94.26401942815951, -82.1050511335892]}}, {"type": "Feature", "properties": {"norad_id": 33446, "name": "YAOGAN-4", "group": "dmc", "lat": 5.385477072735168, "lon": 108.98302324344077, "alt_km": 625.9225786585375, "timestamp": "2025-12-24T05:51:19.272101+00:00", "meta": {"OBJECT_NAME": "YAOGAN-4", "OBJECT_ID": "2008-061A", "EPOCH": "2025-12-23T12:52:24.131424", "MEAN_MOTION": 14.82712321, "ECCENTRICITY": 0.00130241, "INCLINATION": 97.9197, "RA_OF_ASC_NODE": 287.5304, "ARG_OF_PERICENTER": 285.0861, "MEAN_ANOMALY": 74.8911, "EPHEMERIS_TYPE": 0, "CLASSIFICATION_TYPE": "U", "NORAD_CAT_ID": 33446, "ELEMENT_SET_NO": 999, "REV_AT_EPOCH": 91963, "BSTAR": 0.00016555221, "MEAN_MOTION_DOT": 1.284e-05, "MEAN_MOTION_DDOT": 0}, "tle": {"line1": "1 33446U 08061A   25357.53639041  .00001284  00000+0  16555-3 0  9997", "line2": "2 33446  97.9197 287.5304 0013024 285.0861  74.8911 14.82712321919632"}}, "geometry": {"type": "Point", "coordinates": [108.98302324344077, 5.385477072735168]}}, {"type": "Feature", "properties": {"norad_id": 35681, "name": "DEIMOS-1", "group": "dmc", "lat": -15.791832728098187, "lon": 160.50933074016666, "alt_km": 649.6586127640157, "timestamp": "2025-12-24T05:51:19.272113+00:00", "meta": {"OBJECT_NAME": "DEIMOS-1", "OBJECT_ID": "2009-041A", "EPOCH": "2025-12-23T23:24:53.517888", "MEAN_MOTION": 14.7497006, "ECCENTRICITY": 0.00025115, "INCLINATION": 97.7154, "RA_OF_ASC_NODE": 158.0562, "ARG_OF_PERICENTER": 61.6046, "MEAN_ANOMALY": 298.5417, "EPHEMERIS_TYPE": 0, "CLASSIFICATION_TYPE": "U", "NORAD_CAT_ID": 35681, "ELEMENT_SET_NO": 999, "REV_AT_EPOCH": 88105, "BSTAR": 0.00015484213, "MEAN_MOTION_DOT": 9.93e-06, "MEAN_MOTION_DDOT": 0}, "tle": {"line1": "1 35681U 09041A   25357.97561942  .00000993  00000+0  15484-3 0  9997", "line2": "2 35681  97.7154 158.0562 0002511  61.6046 298.5417 14.74970060881053"}}, "geometry": {"type": "Point", "coordinates": [160.50933074016666, -15.791832728098187]}}, {"type": "Feature", "properties": {"norad_id": 35683, "name": "UK-DMC 2", "group": "dmc", "lat": 26.834716518924616, "lon": 128.81660581290905, "alt_km": 641.6045470521021, "timestamp": "2025-12-24T05:51:19.272123+00:00", "meta": {"OBJECT_NAME": "UK-DMC 2", "OBJECT_ID": "2009-041C", "EPOCH": "2025-12-23T23:13:23.933568", "MEAN_MOTION": 14.75645635, "ECCENTRICITY": 0.00015554, "INCLINATION": 97.8572, "RA_OF_ASC_NODE": 132.5541, "ARG_OF_PERICENTER": 91.0191, "MEAN_ANOMALY": 269.1197, "EPHEMERIS_TYPE": 0, "CLASSIFICATION_TYPE": "U", "NORAD_CAT_ID": 35683, "ELEMENT_SET_NO": 999, "REV_AT_EPOCH": 88072, "BSTAR": 0.00019872055, "MEAN_MOTION_DOT": 1.308e-05, "MEAN_MOTION_DDOT": 0}, "tle": {"line1": "1 35683U 09041C   25357.96763812  .00001308  00000+0  19872-3 0  9994", "line2": "2 35683  97.8572 132.5541 0001555  91.0191 269.1197 14.75645635880729"}}, "geometry": {"type": "Point", "coordinates": [128.81660581290905, 26.834716518924616]}}, {"type": "Feature", "properties": {"norad_id": 40715, "name": "DMC3-FM1", "group": "dmc", "lat": 57.171273238568496, "lon": 57.07142585364153, "alt_km": 609.164654695519, "timestamp": "2025-12-24T05:51:19.272134+00:00", "meta": {"OBJECT_NAME": "DMC3-FM1", "OBJECT_ID": "2015-032A", "EPOCH": "2025-12-23T22:50:28.654656", "MEAN_MOTION": 14.85460293, "ECCENTRICITY": 0.00040308, "INCLINATION": 97.6684, "RA_OF_ASC_NODE": 224.7357, "ARG_OF_PERICENTER": 275.3153, "MEAN_ANOMALY": 84.7603, "EPHEMERIS_TYPE": 0, "CLASSIFICATION_TYPE": "U", "NORAD_CAT_ID": 40715, "ELEMENT_SET_NO": 999, "REV_AT_EPOCH": 56389, "BSTAR": 0.00012829511, "MEAN_MOTION_DOT": 1.055e-05, "MEAN_MOTION_DDOT": 0}, "tle": {"line1": "1 40715U 15032A   25357.95172054  .00001055  00000+0  12830-3 0  9990", "line2": "2 40715  97.6684 224.7357 0004030 275.3153  84.7603 14.85460293563893"}}, "geometry": {"type": "Point", "coordinates": [57.07142585364153, 57.171273238568496]}}, {"type": "Feature", "properties": {"norad_id": 40716, "name": "DMC3-FM2", "group": "dmc", "lat": 1.7293462438352911, "lon": -133.76439639940392, "alt_km": 614.4287275832176, "timestamp": "2025-12-24T05:51:19.272145+00:00", "meta": {"OBJECT_NAME": "DMC3-FM2", "OBJECT_ID": "2015-032B", "EPOCH": "2025-12-23T21:45:51.251616", "MEAN_MOTION": 14.85459108, "ECCENTRICITY": 0.00046815, "INCLINATION": 97.674, "RA_OF_ASC_NODE": 226.1439, "ARG_OF_PERICENTER": 282.1246, "MEAN_ANOMALY": 77.9445, "EPHEMERIS_TYPE": 0, "CLASSIFICATION_TYPE": "U", "NORAD_CAT_ID": 40716, "ELEMENT_SET_NO": 999, "REV_AT_EPOCH": 56388, "BSTAR": 8.1777349e-05, "MEAN_MOTION_DOT": 6.54e-06, "MEAN_MOTION_DDOT": 0}, "tle": {"line1": "1 40716U 15032B   25357.90684319  .00000654  00000+0  81777-4 0  9999", "line2": "2 40716  97.6740 226.1439 0004681 282.1246  77.9445 14.85459108563885"}}, "geometry": {"type": "Point", "coordinates": [-133.76439639940392, 1.7293462438352911]}}, {"type": "Feature", "properties": {"norad_id": 40717, "name": "DMC3-FM3", "group": "dmc", "lat": -64.62231207451573, "lon": 31.58372392254146, "alt_km": 617.1511123901391, "timestamp": "2025-12-24T05:51:19.272155+00:00", "meta": {"OBJECT_NAME": "DMC3-FM3", "OBJECT_ID": "2015-032C", "EPOCH": "2025-12-23T22:17:08.092896", "MEAN_MOTION": 14.85445664, "ECCENTRICITY": 0.00039969, "INCLINATION": 97.6794, "RA_OF_ASC_NODE": 227.8054, "ARG_OF_PERICENTER": 282.5918, "MEAN_ANOMALY": 77.4851, "EPHEMERIS_TYPE": 0, "CLASSIFICATION_TYPE": "U", "NORAD_CAT_ID": 40717, "ELEMENT_SET_NO": 999, "REV_AT_EPOCH": 56389, "BSTAR": 0.00012809831, "MEAN_MOTION_DOT": 1.053e-05, "MEAN_MOTION_DDOT": 0}, "tle": {"line1": "1 40717U 15032C   25357.92856589  .00001053  00000+0  12810-3 0  9997", "line2": "2 40717  97.6794 227.8054 0003996 282.5918  77.4851 14.85445664563893"}}, "geometry": {"type": "Point", "coordinates": [31.58372392254146, -64.62231207451573]}}]}